[{"OBJECT_NAME":"STARLINK-35120","OBJECT_ID":"2025-211H","EPOCH":"2026-03-09T17:00:07.199424","MEAN_MOTION":15.05646881,"ECCENTRICITY":0.00020322,"INCLINATION":97.6022,"RA_OF_ASC_NODE":114.0672,"ARG_OF_PERICENTER":145.1578,"MEAN_ANOMALY":214.9782,"EPHEMERIS_TYPE":0,"CLASSIFICATION_TYPE":"U","NORAD_CAT_ID":65659,"ELEMENT_SET_NO":999,"REV_AT_EPOCH":2704,"BSTAR":0.00012984157,"MEAN_MOTION_DOT":1.813e-5,"MEAN_MOTION_DDOT":0},{"OBJECT_NAME":"SL-8 DEB","OBJECT_ID":"1976-098E","EPOCH":"2026-03-09T08:07:12.416160","MEAN_MOTION":15.06605169,"ECCENTRICITY":0.00102283,"INCLINATION":74.028,"RA_OF_ASC_NODE":26.283,"ARG_OF_PERICENTER":218.296,"MEAN_ANOMALY":294.2383,"EPHEMERIS_TYPE":0,"CLASSIFICATION_TYPE":"U","NORAD_CAT_ID":18504,"ELEMENT_SET_NO":999,"REV_AT_EPOCH":18055,"BSTAR":0.0011587434,"MEAN_MOTION_DOT":0.00017191,"MEAN_MOTION_DDOT":0}]
